     2.100          NAVIGATION                              RINEX VERSION / TYPE
fic2rin                                 05/29/2010 00:31:57 PGM / RUN BY / DATE
                                                            END OF HEADER
27 10  5 29  0  0  0.0  .156107358634D-03  .341060513165D-11  .000000000000D+00
     .108000000000D+03 -.123937500000D+03  .428410702168D-08  .125232227936D+01
    -.691786408424D-05  .215095307212D-01  .370107591152D-05  .515362695503D+04
     .518400000000D+06 -.596046447754D-07  .245560088403D+01 -.573694705963D-06
     .978437457105D+00  .323000000000D+03 -.141795030062D+01 -.817641200895D-08
    -.178221709364D-09  .100000000000D+01  .158500000000D+04  .000000000000D+00
     .340000000000D+01  .000000000000D+00 -.419095158577D-08  .108000000000D+03
     .511206000000D+06  .400000000000D+01
28 10  5 29  0  0  0.0 -.150362029672D-04  .102318153949D-11  .000000000000D+00
     .660000000000D+02 -.640000000000D+02  .400159525393D-08  .231517598910D+01
    -.348500907421D-05  .159629563568D-01  .106673687696D-04  .515367831039D+04
     .518400000000D+06  .113621354103D-06 -.269297052933D+01 -.286847352982D-06
     .970589864209D+00  .177062500000D+03 -.195444545054D+01 -.735816363991D-08
     .337871216549D-09  .100000000000D+01  .158500000000D+04  .000000000000D+00
     .340000000000D+01  .000000000000D+00 -.107102096081D-07  .660000000000D+02
     .511206000000D+06  .400000000000D+01
29 10  5 29  0  0  0.0  .123290345073D-03  .284217094304D-11  .000000000000D+00
     .280000000000D+02  .135625000000D+02  .486198823561D-08 -.187441134560D+01
     .590458512306D-06  .303508026991D-02  .569596886635D-05  .515372447205D+04
     .518400000000D+06 -.223517417908D-07 -.164943985642D+01  .104308128357D-06
     .960075001537D+00  .267656250000D+03 -.128918937882D+01 -.802211986778D-08
     .193936649668D-09  .100000000000D+01  .158500000000D+04  .000000000000D+00
     .240000000000D+01  .000000000000D+00 -.884756445885D-08  .280000000000D+02
     .511206000000D+06  .400000000000D+01
30 10  5 29  0  0  0.0  .246873125434D-03  .341060513165D-11  .000000000000D+00
     .630000000000D+02 -.780312500000D+02  .431089385175D-08  .275873584188D+01
    -.402703881264D-05  .122157707810D-01  .114776194096D-04  .515373877335D+04
     .518400000000D+06  .124797224998D-06 -.277167467058D+01 -.132247805595D-06
     .956458771913D+00  .150562500000D+03  .148087956362D+01 -.755602902465D-08
     .319656172105D-09  .100000000000D+01  .158500000000D+04  .000000000000D+00
     .240000000000D+01  .000000000000D+00 -.791624188423D-08  .630000000000D+02
     .511206000000D+06  .400000000000D+01
32 10  5 29  0  0  0.0 -.332249328494D-05 -.852651282912D-11  .000000000000D+00
     .110000000000D+02  .117906250000D+03  .412802909184D-08 -.362067821235D+00
     .613182783127D-05  .126520181075D-01  .101160258055D-04  .515373591423D+04
     .518400000000D+06 -.257045030594D-06  .499301607608D+00 -.182539224625D-06
     .959537630765D+00  .187593750000D+03 -.979331361494D+00 -.792425864861D-08
     .407159816984D-10  .100000000000D+01  .158500000000D+04  .000000000000D+00
     .240000000000D+01  .000000000000D+00 -.325962901115D-08  .110000000000D+02
     .511206000000D+06  .400000000000D+01
12 10  5 28 23 59 44.0 -.110214110464D-03  .420641299570D-11  .000000000000D+00
     .150000000000D+02 -.667500000000D+02  .411517141341D-08 -.113833450265D+01
    -.339560210705D-05  .353048171382D-02  .114534050226D-04  .515369180489D+04
     .518384000000D+06 -.298023223877D-07 -.271809393248D+01 -.651925802231D-07
     .971144204831D+00  .164000000000D+03 -.438912425367D+00 -.765496171702D-08
     .439304013061D-09  .100000000000D+01  .158500000000D+04  .000000000000D+00
     .240000000000D+01  .000000000000D+00 -.116415321827D-07  .150000000000D+02
     .514266000000D+06  .400000000000D+01
22 10  5 28 23 59 44.0  .170990824699D-03 -.909494701773D-12  .000000000000D+00
     .100000000000D+01  .127875000000D+03  .457876215239D-08  .219076065521D+01
     .667385756969D-05  .528992433101D-02  .101383775473D-04  .515372495079D+04
     .518384000000D+06  .633299350739D-07  .440909662572D+00 -.132247805595D-06
     .935420222247D+00  .169906250000D+03 -.193796216445D+01 -.792175854447D-08
    -.103575742917D-10  .100000000000D+01  .158500000000D+04  .000000000000D+00
     .240000000000D+01  .000000000000D+00 -.176951289177D-07  .100000000000D+01
     .516516000000D+06  .400000000000D+01
24 10  5 28 23 59 44.0  .291408505291D-03  .329691829393D-11  .000000000000D+00
     .500000000000D+01 -.659375000000D+01  .473055418943D-08  .168597492614D+01
    -.376254320145D-06  .568633025978D-02  .810809433460D-05  .515485929489D+04
     .518384000000D+06  .316649675369D-07 -.581822421662D+00  .115483999252D-06
     .949194533694D+00  .216093750000D+03 -.473809704167D+00 -.787568519676D-08
    -.713601152924D-09  .100000000000D+01  .158500000000D+04  .000000000000D+00
     .240000000000D+01  .000000000000D+00 -.139698386192D-08  .500000000000D+01
     .517326000000D+06  .400000000000D+01
